[{"OBJECT_NAME":"STARLINK-30486","OBJECT_ID":"2023-153U","EPOCH":"2026-03-09T22:00:01.999584","MEAN_MOTION":15.26716331,"ECCENTRICITY":0.0001476,"INCLINATION":43.0023,"RA_OF_ASC_NODE":65.5304,"ARG_OF_PERICENTER":262.5123,"MEAN_ANOMALY":101.6207,"EPHEMERIS_TYPE":0,"CLASSIFICATION_TYPE":"U","NORAD_CAT_ID":58009,"ELEMENT_SET_NO":999,"REV_AT_EPOCH":562,"BSTAR":0.0018657337,"MEAN_MOTION_DOT":0.00050091,"MEAN_MOTION_DDOT":0},{"OBJECT_NAME":"GEOSCAN 5 (RS92S5)","OBJECT_ID":"2025-155R","EPOCH":"2026-03-09T22:01:07.273920","MEAN_MOTION":15.30265233,"ECCENTRICITY":0.00070849,"INCLINATION":97.4462,"RA_OF_ASC_NODE":37.7456,"ARG_OF_PERICENTER":154.5846,"MEAN_ANOMALY":205.5745,"EPHEMERIS_TYPE":0,"CLASSIFICATION_TYPE":"U","NORAD_CAT_ID":64891,"ELEMENT_SET_NO":999,"REV_AT_EPOCH":6562,"BSTAR":0.00068639307,"MEAN_MOTION_DOT":0.00020065,"MEAN_MOTION_DDOT":0}]
